NORAD_CAT_ID,OBJECT_NAME,OBJECT_TYPE,EPOCH,MEAN_MOTION,ECCENTRICITY,INCLINATION,RA_OF_ASC_NODE,ARG_OF_PERICENTER,MEAN_ANOMALY,BSTAR,MEAN_MOTION_DOT,MEAN_MOTION_DDOT,TLE_LINE0,TLE_LINE1,TLE_LINE2,SEMIMAJOR_AXIS,PERIOD,APOGEE,PERIGEE,DECAYED
50176.0,STARLINK-3293,PAYLOAD,2023-09-11 17:57:19,15.08845217,0.0001416,53.2189,14.0061,86.1896,273.9258,7.3183e-05,8.77e-06,0.0,0 STARLINK-3293,1 50176U 21125W   23254.74813857  .00000877  00000-0  73183-4 0  9997,2 50176  53.2189  14.0061 0001416  86.1896 273.9258 15.08845217 96148,6917.864,95.437,540.709,538.75,0.0
50176.0,STARLINK-3293,PAYLOAD,2023-09-12 13:01:56,15.08844185,0.0001356,53.2199,10.4402,86.8991,273.2156,0.00013108,1.799e-05,0.0,0 STARLINK-3293,1 50176U 21125W   23255.54301778  .00001799  00000-0  13108-3 0  9994,2 50176  53.2199  10.4402 0001356  86.8991 273.2156 15.08844185 99397,6917.868,95.437,540.671,538.795,0.0
50176.0,STARLINK-3293,PAYLOAD,2023-09-13 00:09:38,15.08846073,0.0001687,53.2194,8.3583,74.5319,285.5859,0.00010801,1.432e-05,0.0,0 STARLINK-3293,1 50176U 21125W   23256.00669763  .00001432  00000-0  10801-3 0  9998,2 50176  53.2194   8.3583 0001687  74.5319 285.5859 15.08846073 96338,6917.862,95.437,540.894,538.56,0.0
50176.0,STARLINK-3293,PAYLOAD,2023-09-13 12:52:43,15.08851289,0.0001449,53.2187,5.9795,83.2726,276.8431,0.00015865,2.239e-05,0.0,0 STARLINK-3293,1 50176U 21125W   23256.53661287  .00002239  00000-0  15865-3 0  9990,2 50176  53.2187   5.9795 0001449  83.2726 276.8431 15.08851289 99543,6917.846,95.437,540.713,538.708,0.0
50176.0,STARLINK-3293,PAYLOAD,2023-09-13 14:28:06,15.08855163,0.0001478,53.2193,5.6821,87.9552,272.161,0.00021384,3.118e-05,0.0,0 STARLINK-3293,1 50176U 21125W   23256.60285054  .00003118  00000-0  21384-3 0  9992,2 50176  53.2193   5.6821 0001478  87.9552 272.1610 15.08855163 96424,6917.834,95.437,540.721,538.677,0.0
50176.0,STARLINK-3293,PAYLOAD,2023-09-14 07:57:22,15.08824375,0.0001502,53.2201,2.4115,110.2192,249.8962,-0.00021565,-3.717e-05,0.0,0 STARLINK-3293,1 50176U 21125W   23257.33150903 -.00003717  00000-0 -21565-3 0  9995,2 50176  53.2201   2.4115 0001502 110.2192 249.8962 15.08824375 96537,6917.928,95.439,540.832,538.754,0.0
50176.0,STARLINK-3293,PAYLOAD,2023-09-14 12:43:32,15.08821204,0.000146,53.2195,1.5185,106.9849,253.1303,-0.00023229,-3.981e-05,0.0,0 STARLINK-3293,1 50176U 21125W   23257.53023384 -.00003981  00000-0 -23229-3 0  9991,2 50176  53.2195   1.5185 0001460 106.9849 253.1303 15.08821204 99695,6917.938,95.439,540.813,538.793,0.0
50176.0,STARLINK-3293,PAYLOAD,2023-09-14 14:18:55,15.08818854,0.0001426,53.2193,1.2208,106.8592,253.2556,-0.00026566,-4.511e-05,0.0,0 STARLINK-3293,1 50176U 21125W   23257.59647493 -.00004511  00000-0 -26566-3 0  9997,2 50176  53.2193   1.2208 0001426 106.8592 253.2556 15.08818854 99702,6917.945,95.439,540.797,538.824,0.0
50176.0,STARLINK-3293,PAYLOAD,2023-09-15 07:48:09,15.08853137,0.000113,53.2194,357.9495,115.7829,244.3279,0.00042373,6.465e-05,0.0,0 STARLINK-3293,1 50176U 21125W   23258.32510440  .00006465  00000-0  42373-3 0  9992,2 50176  53.2194 357.9495 0001130 115.7829 244.3279 15.08853137 96686,6917.84,95.437,540.487,538.924,0.0
50176.0,STARLINK-3293,PAYLOAD,2023-09-15 12:34:19,15.08840789,0.0001639,53.2193,357.058,121.956,238.1591,0.00013899,1.925e-05,0.0,0 STARLINK-3293,1 50176U 21125W   23258.52383134  .00001925  00000-0  13899-3 0  9999,2 50176  53.2193 357.0580 0001639 121.9560 238.1591 15.08840789 99844,6917.878,95.438,540.877,538.609,0.0
50176.0,STARLINK-3293,PAYLOAD,2023-09-15 14:09:41,15.08844434,0.0001338,53.2191,356.7598,100.1661,259.9482,0.00013774,1.905e-05,0.0,0 STARLINK-3293,1 50176U 21125W   23258.59006773  .00001905  00000-0  13774-3 0  9997,2 50176  53.2191 356.7598 0001338 100.1661 259.9482 15.08844434 96729,6917.867,95.437,540.657,538.806,0.0
50176.0,STARLINK-3293,PAYLOAD,2023-09-16 07:38:56,15.08840567,0.0001527,53.2187,353.4906,115.8997,244.2153,0.00021057,3.065e-05,0.0,0 STARLINK-3293,1 50176U 21125W   23259.31871487  .00003065  00000-0  21057-3 0  9992,2 50176  53.2187 353.4906 0001527 115.8997 244.2153 15.08840567 96833,6917.879,95.438,540.8,538.687,0.0
50176.0,STARLINK-3293,PAYLOAD,2023-09-16 14:00:29,15.08840522,0.0001215,53.2193,352.3006,100.1627,259.9502,0.00036097,5.462e-05,0.0,0 STARLINK-3293,1 50176U 21125W   23259.58367031  .00005462  00000-0  36097-3 0  9999,2 50176  53.2193 352.3006 0001215 100.1627 259.9502 15.08840522100007,6917.879,95.438,540.584,538.903,0.0
50176.0,STARLINK-3293,PAYLOAD,2023-09-17 10:40:30,15.08847965,0.0001339,53.2194,348.4355,96.2904,263.8241,0.00010868,1.443e-05,0.0,0 STARLINK-3293,1 50176U 21125W   23260.44479212  .00001443  00000-0  10868-3 0  9994,2 50176  53.2194 348.4355 0001339  96.2904 263.8241 15.08847965 97008,6917.856,95.437,540.647,538.795,0.0
50176.0,STARLINK-3293,PAYLOAD,2023-09-17 12:15:53,15.08849927,0.0001109,53.2196,348.1384,89.6769,270.435,0.00011369,1.522e-05,0.0,0 STARLINK-3293,1 50176U 21125W   23260.51103031  .00001522  00000-0  11369-3 0  9990,2 50176  53.2196 348.1384 0001109  89.6769 270.4350 15.08849927100144,6917.85,95.437,540.482,538.948,0.0
50176.0,STARLINK-3293,PAYLOAD,2023-09-18 12:06:39,15.08850403,0.0001409,53.2194,343.678,98.0333,262.0819,5.3553e-05,5.65e-06,0.0,0 STARLINK-3293,1 50176U 21125W   23261.50462632  .00000565  00000-0  53553-4 0  9993,2 50176  53.2194 343.6780 0001409  98.0333 262.0819 15.08850403100290,6917.849,95.437,540.688,538.739,0.0
50176.0,STARLINK-3293,PAYLOAD,2023-09-19 15:08:12,15.08860996,0.0001438,53.2181,338.6207,102.1985,257.9168,0.00024656,3.64e-05,0.0,0 STARLINK-3293,1 50176U 21125W   23262.63069489  .00003640  00000-0  24656-3 0  9999,2 50176  53.2181 338.6207 0001438 102.1985 257.9168 15.08860996 97334,6917.816,95.436,540.676,538.686,0.0
50176.0,STARLINK-3293,PAYLOAD,2023-09-20 05:26:42,15.08824992,0.0001253,53.2183,335.9466,73.2488,286.8641,-0.00019146,-3.332e-05,0.0,0 STARLINK-3293,1 50176U 21125W   23263.22687580 -.00003332  00000-0 -19146-3 0  9991,2 50176  53.2183 335.9466 0001253  73.2488 286.8641 15.08824992 97427,6917.926,95.439,540.658,538.924,0.0
50176.0,STARLINK-3293,PAYLOAD,2023-09-20 11:48:14,15.08824518,0.0001445,53.2184,334.7577,81.2862,278.8294,-0.00017812,-3.12e-05,0.0,0 STARLINK-3293,1 50176U 21125W   23263.49183837 -.00003120  00000-0 -17812-3 0  9999,2 50176  53.2184 334.7577 0001445  81.2862 278.8294 15.08824518100598,6917.928,95.439,540.792,538.793,0.0
50176.0,STARLINK-3293,PAYLOAD,2023-09-21 10:03:38,15.08845324,0.0001379,53.2173,330.5933,69.4122,290.7018,0.00028067,4.182e-05,0.0,0 STARLINK-3293,1 50176U 21125W   23264.41919443  .00004182  00000-0  28067-3 0  9993,2 50176  53.2173 330.5933 0001379  69.4122 290.7018 15.08845324 97601,6917.864,95.437,540.683,538.775,0.0
50176.0,STARLINK-3293,PAYLOAD,2023-09-21 13:14:24,15.08848217,0.0001463,53.2178,329.9983,65.2396,294.8748,0.000553,8.526e-05,0.0,0 STARLINK-3293,1 50176U 21125W   23264.55167568  .00008526  00000-0  55300-3 0  9997,2 50176  53.2178 329.9983 0001463  65.2396 294.8748 15.08848217100754,6917.855,95.437,540.732,538.708,0.0
50176.0,STARLINK-3293,PAYLOAD,2023-09-21 21:11:20,15.08842576,0.0001518,53.2179,328.5122,73.6421,286.4738,0.00059808,9.244e-05,0.0,0 STARLINK-3293,1 50176U 21125W   23264.88287930  .00009244  00000-0  59808-3 0  9994,2 50176  53.2179 328.5122 0001518  73.6421 286.4738 15.08842576100802,6917.873,95.437,540.788,538.687,0.0
50176.0,STARLINK-3293,PAYLOAD,2023-09-22 05:08:16,15.08844221,0.0001537,53.2176,327.0255,71.7933,288.3226,0.00036693,5.557e-05,0.0,0 STARLINK-3293,1 50176U 21125W   23265.21407860  .00005557  00000-0  36693-3 0  9998,2 50176  53.2176 327.0255 0001537  71.7933 288.3226 15.08844221 97726,6917.867,95.437,540.796,538.669,0.0
50176.0,STARLINK-3293,PAYLOAD,2023-09-22 11:29:48,15.08856874,0.0001596,53.2176,325.8363,73.2342,286.8825,0.00054645,8.423e-05,0.0,0 STARLINK-3293,1 50176U 21125W   23265.47903451  .00008423  00000-0  54645-3 0  9995,2 50176  53.2176 325.8363 0001596  73.2342 286.8825 15.08856874100896,6917.829,95.436,540.798,538.59,0.0
50176.0,STARLINK-3293,PAYLOAD,2023-09-22 21:02:07,15.08853292,0.0001425,53.2171,324.0514,74.0707,286.0442,0.0005156,7.93e-05,0.0,0 STARLINK-3293,1 50176U 21125W   23265.87647331  .00007930  00000-0  51560-3 0  9996,2 50176  53.2171 324.0514 0001425  74.0707 286.0442 15.08853292100950,6917.84,95.437,540.691,538.719,0.0
50176.0,STARLINK-3293,PAYLOAD,2023-09-23 11:20:35,15.08847168,0.0001578,53.2173,321.3752,74.4411,285.6755,0.00014857,2.078e-05,0.0,0 STARLINK-3293,1 50176U 21125W   23266.47263347  .00002078  00000-0  14857-3 0  9990,2 50176  53.2173 321.3752 0001578  74.4411 285.6755 15.08847168 97919,6917.858,95.437,540.815,538.632,0.0
50176.0,STARLINK-3293,PAYLOAD,2023-09-24 03:14:27,15.08840318,0.0001445,53.2168,318.4027,81.2275,278.888,6.2326e-05,7.04e-06,0.0,0 STARLINK-3293,1 50176U 21125W   23267.13503574  .00000704  00000-0  62326-4 0  9992,2 50176  53.2168 318.4027 0001445  81.2275 278.8880 15.08840318 98017,6917.879,95.438,540.744,538.745,0.0
50176.0,STARLINK-3293,PAYLOAD,2023-09-24 11:11:22,15.08846022,0.0001514,53.2167,316.9146,81.2308,278.8856,8.2445e-05,1.025e-05,0.0,0 STARLINK-3293,1 50176U 21125W   23267.46623446  .00001025  00000-0  82445-4 0  9990,2 50176  53.2167 316.9146 0001514  81.2308 278.8856 15.08846022101190,6917.862,95.437,540.774,538.68,0.0
50176.0,STARLINK-3293,PAYLOAD,2023-09-25 09:26:46,15.08849084,0.0001454,53.2161,312.7517,90.2581,269.8577,0.00023685,3.484e-05,0.0,0 STARLINK-3293,1 50176U 21125W   23268.39359312  .00003484  00000-0  23685-3 0  9992,2 50176  53.2161 312.7517 0001454  90.2581 269.8577 15.08849084 98204,6917.853,95.437,540.723,538.712,0.0
50176.0,STARLINK-3293,PAYLOAD,2023-09-26 09:17:34,15.08840804,0.00016,53.2166,308.2926,84.2037,275.9137,0.0001317,1.809e-05,0.0,0 STARLINK-3293,1 50176U 21125W   23269.38719970  .00001809  00000-0  13170-3 0  9999,2 50176  53.2166 308.2926 0001600  84.2037 275.9137 15.08840804 98352,6917.878,95.438,540.85,538.636,0.0
